{
  "type": "FeatureCollection",
  "features": [
    {
      "type": "Feature",
      "properties": {
        "norad_id": 37069,
        "name": "FENGYUN 1C DEB",
        "group": "fengyun-1c-debris",
        "lat": -54.15290382158669,
        "lon": 129.21955062419528,
        "alt_km": 824.9504016121018,
        "timestamp": "2025-12-13T03:42:11.561896+00:00",
        "meta_object_name": "FENGYUN 1C DEB",
        "meta_object_id": "1999-025EFD",
        "meta_epoch": "2025-12-12T04:57:55.594080",
        "meta_mean_motion": 13.37980622,
        "meta_eccentricity": 0.04246041,
        "meta_inclination": 95.8486,
        "meta_ra_of_asc_node": 316.8273,
        "meta_arg_of_pericenter": 258.0212,
        "meta_mean_anomaly": 97.3042,
        "meta_ephemeris_type": 0,
        "meta_classification_type": "U",
        "meta_norad_cat_id": 37069,
        "meta_element_set_no": 999,
        "meta_rev_at_epoch": 87701,
        "meta_bstar": 0.0039342275,
        "meta_mean_motion_dot": 3.476e-05,
        "meta_mean_motion_ddot": 0,
        "tle_line1": "1 37069U 99025EFD 25346.20689345  .00003476  00000+0  39342-2 0  9999",
        "tle_line2": "2 37069  95.8486 316.8273 0424604 258.0212  97.3042 13.37980622877016"
      },
      "geometry": {
        "type": "Point",
        "coordinates": [
          129.21955062419528,
          -54.15290382158669
        ]
      }
    },
    {
      "type": "Feature",
      "properties": {
        "norad_id": 37077,
        "name": "FENGYUN 1C DEB",
        "group": "fengyun-1c-debris",
        "lat": -43.65961189026647,
        "lon": 71.04567082565505,
        "alt_km": 694.4507720332685,
        "timestamp": "2025-12-13T03:42:11.561906+00:00",
        "meta_object_name": "FENGYUN 1C DEB",
        "meta_object_id": "1999-025EFM",
        "meta_epoch": "2025-12-10T04:15:26.292096",
        "meta_mean_motion": 14.41185335,
        "meta_eccentricity": 0.00955067,
        "meta_inclination": 99.0349,
        "meta_ra_of_asc_node": 59.1671,
        "meta_arg_of_pericenter": 336.2622,
        "meta_mean_anomaly": 23.4174,
        "meta_ephemeris_type": 0,
        "meta_classification_type": "U",
        "meta_norad_cat_id": 37077,
        "meta_element_set_no": 999,
        "meta_rev_at_epoch": 84918,
        "meta_bstar": 0.00049394672,
        "meta_mean_motion_dot": 1.63e-05,
        "meta_mean_motion_ddot": 0,
        "tle_line1": "1 37077U 99025EFM 25344.17738764  .00001630  00000+0  49395-3 0  9992",
        "tle_line2": "2 37077  99.0349  59.1671 0095506 336.2622  23.4174 14.41185335849184"
      },
      "geometry": {
        "type": "Point",
        "coordinates": [
          71.04567082565505,
          -43.65961189026647
        ]
      }
    },
    {
      "type": "Feature",
      "properties": {
        "norad_id": 37079,
        "name": "FENGYUN 1C DEB",
        "group": "fengyun-1c-debris",
        "lat": -12.279021048577713,
        "lon": -59.80483649096576,
        "alt_km": 692.4329962735292,
        "timestamp": "2025-12-13T03:42:11.561916+00:00",
        "meta_object_name": "FENGYUN 1C DEB",
        "meta_object_id": "1999-025EFP",
        "meta_epoch": "2025-12-08T02:44:01.234752",
        "meta_mean_motion": 14.59611679,
        "meta_eccentricity": 0.00122766,
        "meta_inclination": 98.8583,
        "meta_ra_of_asc_node": 116.7613,
        "meta_arg_of_pericenter": 158.0641,
        "meta_mean_anomaly": 202.1084,
        "meta_ephemeris_type": 0,
        "meta_classification_type": "U",
        "meta_norad_cat_id": 37079,
        "meta_element_set_no": 999,
        "meta_rev_at_epoch": 64548,
        "meta_bstar": 0.0049568396,
        "meta_mean_motion_dot": 0.00023637,
        "meta_mean_motion_ddot": 0,
        "tle_line1": "1 37079U 99025EFP 25342.11390318  .00023637  00000+0  49568-2 0  9997",
        "tle_line2": "2 37079  98.8583 116.7613 0012276 158.0641 202.1084 14.59611679645480"
      },
      "geometry": {
        "type": "Point",
        "coordinates": [
          -59.80483649096576,
          -12.279021048577713
        ]
      }
    },
    {
      "type": "Feature",
      "properties": {
        "norad_id": 37081,
        "name": "FENGYUN 1C DEB",
        "group": "fengyun-1c-debris",
        "lat": -43.930230857424846,
        "lon": 147.9145295560373,
        "alt_km": 688.7306197058624,
        "timestamp": "2025-12-13T03:42:11.561926+00:00",
        "meta_object_name": "FENGYUN 1C DEB",
        "meta_object_id": "1999-025EFR",
        "meta_epoch": "2025-12-11T04:20:52.810656",
        "meta_mean_motion": 14.13829604,
        "meta_eccentricity": 0.02642543,
        "meta_inclination": 98.708,
        "meta_ra_of_asc_node": 137.4998,
        "meta_arg_of_pericenter": 352.6633,
        "meta_mean_anomaly": 7.0706,
        "meta_ephemeris_type": 0,
        "meta_classification_type": "U",
        "meta_norad_cat_id": 37081,
        "meta_element_set_no": 999,
        "meta_rev_at_epoch": 58552,
        "meta_bstar": 0.0037644522,
        "meta_mean_motion_dot": 9.927e-05,
        "meta_mean_motion_ddot": 0,
        "tle_line1": "1 37081U 99025EFR 25345.18116679  .00009927  00000+0  37645-2 0  9995",
        "tle_line2": "2 37081  98.7080 137.4998 0264254 352.6633   7.0706 14.13829604585528"
      },
      "geometry": {
        "type": "Point",
        "coordinates": [
          147.9145295560373,
          -43.930230857424846
        ]
      }
    },
    {
      "type": "Feature",
      "properties": {
        "norad_id": 37400,
        "name": "FENGYUN 1C DEB",
        "group": "fengyun-1c-debris",
        "lat": 19.40888338788082,
        "lon": -178.64764296795633,
        "alt_km": 1141.9236081061163,
        "timestamp": "2025-12-13T03:42:11.561936+00:00",
        "meta_object_name": "FENGYUN 1C DEB",
        "meta_object_id": "1999-025EFS",
        "meta_epoch": "2025-12-11T00:32:02.729184",
        "meta_mean_motion": 13.63640993,
        "meta_eccentricity": 0.04016175,
        "meta_inclination": 98.8379,
        "meta_ra_of_asc_node": 182.5515,
        "meta_arg_of_pericenter": 141.1133,
        "meta_mean_anomaly": 221.9645,
        "meta_ephemeris_type": 0,
        "meta_classification_type": "U",
        "meta_norad_cat_id": 37400,
        "meta_element_set_no": 999,
        "meta_rev_at_epoch": 80170,
        "meta_bstar": 0.00059726851,
        "meta_mean_motion_dot": 7.81e-06,
        "meta_mean_motion_ddot": 0,
        "tle_line1": "1 37400U 99025EFS 25345.02225381  .00000781  00000+0  59727-3 0  9999",
        "tle_line2": "2 37400  98.8379 182.5515 0401617 141.1133 221.9645 13.63640993801709"
      },
      "geometry": {
        "type": "Point",
        "coordinates": [
          -178.64764296795633,
          19.40888338788082
        ]
      }
    },
    {
      "type": "Feature",
      "properties": {
        "norad_id": 37404,
        "name": "FENGYUN 1C DEB",
        "group": "fengyun-1c-debris",
        "lat": -70.84955345487344,
        "lon": 144.6326004661547,
        "alt_km": 794.3127060247161,
        "timestamp": "2025-12-13T03:42:11.561947+00:00",
        "meta_object_name": "FENGYUN 1C DEB",
        "meta_object_id": "1999-025EFW",
        "meta_epoch": "2025-12-09T23:11:10.608000",
        "meta_mean_motion": 14.31626731,
        "meta_eccentricity": 0.00443951,
        "meta_inclination": 98.4529,
        "meta_ra_of_asc_node": 346.8831,
        "meta_arg_of_pericenter": 170.4527,
        "meta_mean_anomaly": 219.5442,
        "meta_ephemeris_type": 0,
        "meta_classification_type": "U",
        "meta_norad_cat_id": 37404,
        "meta_element_set_no": 999,
        "meta_rev_at_epoch": 82701,
        "meta_bstar": 0.0009006261,
        "meta_mean_motion_dot": 2.383e-05,
        "meta_mean_motion_ddot": 0,
        "tle_line1": "1 37404U 99025EFW 25343.96609500  .00002383  00000+0  90063-3 0  9991",
        "tle_line2": "2 37404  98.4529 346.8831 0044395 170.4527 219.5442 14.31626731827010"
      },
      "geometry": {
        "type": "Point",
        "coordinates": [
          144.6326004661547,
          -70.84955345487344
        ]
      }
    },
    {
      "type": "Feature",
      "properties": {
        "norad_id": 37406,
        "name": "FENGYUN 1C DEB",
        "group": "fengyun-1c-debris",
        "lat": 48.734126592195494,
        "lon": 49.00870991168571,
        "alt_km": 950.436141361216,
        "timestamp": "2025-12-13T03:42:11.561957+00:00",
        "meta_object_name": "FENGYUN 1C DEB",
        "meta_object_id": "1999-025EFY",
        "meta_epoch": "2025-12-10T22:08:17.601216",
        "meta_mean_motion": 14.04282623,
        "meta_eccentricity": 0.0149683,
        "meta_inclination": 98.4429,
        "meta_ra_of_asc_node": 217.1877,
        "meta_arg_of_pericenter": 271.7264,
        "meta_mean_anomaly": 103.1759,
        "meta_ephemeris_type": 0,
        "meta_classification_type": "U",
        "meta_norad_cat_id": 37406,
        "meta_element_set_no": 999,
        "meta_rev_at_epoch": 63207,
        "meta_bstar": 0.0017076,
        "meta_mean_motion_dot": 2.958e-05,
        "meta_mean_motion_ddot": 0,
        "tle_line1": "1 37406U 99025EFY 25344.92242594  .00002958  00000+0  17076-2 0  9996",
        "tle_line2": "2 37406  98.4429 217.1877 0149683 271.7264 103.1759 14.04282623632077"
      },
      "geometry": {
        "type": "Point",
        "coordinates": [
          49.00870991168571,
          48.734126592195494
        ]
      }
    }
  ]
}